[{"OBJECT_NAME":"XINGCHI-1 02A","OBJECT_ID":"2023-187A","EPOCH":"2026-03-09T23:04:08.143968","MEAN_MOTION":14.83941707,"ECCENTRICITY":0.00129983,"INCLINATION":97.9289,"RA_OF_ASC_NODE":152.4493,"ARG_OF_PERICENTER":107.7804,"MEAN_ANOMALY":252.483,"EPHEMERIS_TYPE":0,"CLASSIFICATION_TYPE":"U","NORAD_CAT_ID":58496,"ELEMENT_SET_NO":999,"REV_AT_EPOCH":12240,"BSTAR":0.00036146838,"MEAN_MOTION_DOT":2.955e-5,"MEAN_MOTION_DDOT":0},{"OBJECT_NAME":"SL-14 R\/B","OBJECT_ID":"1983-037B","EPOCH":"2026-03-09T23:05:44.656224","MEAN_MOTION":14.86187856,"ECCENTRICITY":0.00176875,"INCLINATION":82.5045,"RA_OF_ASC_NODE":231.5305,"ARG_OF_PERICENTER":36.2922,"MEAN_ANOMALY":323.949,"EPHEMERIS_TYPE":0,"CLASSIFICATION_TYPE":"U","NORAD_CAT_ID":14033,"ELEMENT_SET_NO":999,"REV_AT_EPOCH":93138,"BSTAR":7.5110195e-5,"MEAN_MOTION_DOT":6.85e-6,"MEAN_MOTION_DDOT":0}]
